{
  "type": "FeatureCollection",
  "generator": "overpass-turbo",
  "copyright": "The data included in this document is from www.openstreetmap.org. The data is made available under ODbL.",
  "timestamp": "2026-07-25T10:09:01Z",
  "features": [
    {
      "type": "Feature",
      "properties": {
        "@id": "way/533818615",
        "building": "yes",
        "height": "15",
        "name": "LASWA",
        "office": "government",
        "official_name": "Lagos State Waterways Authority",
        "website": "https://laswa.lagosstate.gov.ng/",
        "@geometry": "center"
      },
      "geometry": {
        "type": "Point",
        "coordinates": [
          3.4271419,
          6.4422291
        ]
      },
      "id": "way/533818615"
    },
    {
      "type": "Feature",
      "properties": {
        "@id": "way/570559553",
        "name": "Lagos State Judiciary",
        "office": "government",
        "@geometry": "center"
      },
      "geometry": {
        "type": "Point",
        "coordinates": [
          3.4331482,
          6.4465561
        ]
      },
      "id": "way/570559553"
    },
    {
      "type": "Feature",
      "properties": {
        "@id": "way/595561656",
        "addr:city": "Lagos",
        "addr:housenumber": "7",
        "addr:street": "Kofo Abayomi Road",
        "name": "The Department of Petroleum Resources -- Lagos Zonal Office",
        "office": "government",
        "@geometry": "center"
      },
      "geometry": {
        "type": "Point",
        "coordinates": [
          3.4128303,
          6.4364143
        ]
      },
      "id": "way/595561656"
    },
    {
      "type": "Feature",
      "properties": {
        "@id": "way/599933126",
        "name": "Federal Inland Revenue Service -- Lagos Office",
        "office": "government",
        "@geometry": "center"
      },
      "geometry": {
        "type": "Point",
        "coordinates": [
          3.4123272,
          6.4438042
        ]
      },
      "id": "way/599933126"
    },
    {
      "type": "Feature",
      "properties": {
        "@id": "way/610896802",
        "building": "yes",
        "height": "30",
        "name": "Ministry of Education",
        "office": "government",
        "@geometry": "center"
      },
      "geometry": {
        "type": "Point",
        "coordinates": [
          3.3602827,
          6.6169382
        ]
      },
      "id": "way/610896802"
    },
    {
      "type": "Feature",
      "properties": {
        "@id": "way/610896804",
        "building": "yes",
        "height": "30",
        "name": "Cabinet Office",
        "office": "government",
        "@geometry": "center"
      },
      "geometry": {
        "type": "Point",
        "coordinates": [
          3.3614611,
          6.617408
        ]
      },
      "id": "way/610896804"
    },
    {
      "type": "Feature",
      "properties": {
        "@id": "way/610896805",
        "building": "yes",
        "height": "30",
        "name": "Ministry of Housing",
        "office": "government",
        "@geometry": "center"
      },
      "geometry": {
        "type": "Point",
        "coordinates": [
          3.3612408,
          6.6162834
        ]
      },
      "id": "way/610896805"
    },
    {
      "type": "Feature",
      "properties": {
        "@id": "way/610896809",
        "building": "yes",
        "building:levels": "3",
        "height": "17",
        "name": "Ministry of Science and Technology",
        "office": "government",
        "@geometry": "center"
      },
      "geometry": {
        "type": "Point",
        "coordinates": [
          3.3600592,
          6.6144089
        ]
      },
      "id": "way/610896809"
    },
    {
      "type": "Feature",
      "properties": {
        "@id": "way/610896830",
        "building": "yes",
        "height": "17",
        "name": "Ministry of Civil Service Comission",
        "office": "government",
        "@geometry": "center"
      },
      "geometry": {
        "type": "Point",
        "coordinates": [
          3.3605053,
          6.6150333
        ]
      },
      "id": "way/610896830"
    },
    {
      "type": "Feature",
      "properties": {
        "@id": "way/610896832",
        "building": "yes",
        "height": "17",
        "name": "Ministry of Home Affairs",
        "office": "government",
        "@geometry": "center"
      },
      "geometry": {
        "type": "Point",
        "coordinates": [
          3.362007,
          6.6150132
        ]
      },
      "id": "way/610896832"
    },
    {
      "type": "Feature",
      "properties": {
        "@id": "way/610896836",
        "building": "yes",
        "height": "19",
        "name": "Deputy Governors Office",
        "office": "government",
        "@geometry": "center"
      },
      "geometry": {
        "type": "Point",
        "coordinates": [
          3.3610644,
          6.615171
        ]
      },
      "id": "way/610896836"
    },
    {
      "type": "Feature",
      "properties": {
        "@id": "way/610896839",
        "addr:city": "Lagos",
        "addr:street": "Obafemi Awolowo Way",
        "alt_name": "Alausa Secretariat",
        "building": "yes",
        "name": "Lagos State Secretariat",
        "office": "government",
        "website": "https://lagosstate.gov.ng/",
        "@geometry": "center"
      },
      "geometry": {
        "type": "Point",
        "coordinates": [
          3.3607361,
          6.6155819
        ]
      },
      "id": "way/610896839"
    },
    {
      "type": "Feature",
      "properties": {
        "@id": "way/610896855",
        "name": "National Identity Management Commission",
        "office": "government",
        "@geometry": "center"
      },
      "geometry": {
        "type": "Point",
        "coordinates": [
          3.3579465,
          6.6168052
        ]
      },
      "id": "way/610896855"
    },
    {
      "type": "Feature",
      "properties": {
        "@id": "way/742675438",
        "building": "yes",
        "name": "Ijede Local Council Development Area Secretariat",
        "office": "government",
        "@geometry": "center"
      },
      "geometry": {
        "type": "Point",
        "coordinates": [
          3.5906296,
          6.5647295
        ]
      },
      "id": "way/742675438"
    },
    {
      "type": "Feature",
      "properties": {
        "@id": "way/746008858",
        "building": "yes",
        "name": "Lagos State Independent Electoral Commission",
        "office": "government",
        "short_name": "LASIEC",
        "@geometry": "center"
      },
      "geometry": {
        "type": "Point",
        "coordinates": [
          3.5908402,
          6.5648884
        ]
      },
      "id": "way/746008858"
    },
    {
      "type": "Feature",
      "properties": {
        "@id": "way/747457404",
        "building": "yes",
        "name": "Corporate Affairs Commission",
        "office": "government",
        "@geometry": "center"
      },
      "geometry": {
        "type": "Point",
        "coordinates": [
          3.3605444,
          6.6251944
        ]
      },
      "id": "way/747457404"
    },
    {
      "type": "Feature",
      "properties": {
        "@id": "node/2407687229",
        "addr:city": "Lagos",
        "addr:housenumber": "Lote 13, R/C",
        "addr:postcode": "8600-620",
        "addr:street": "Rua Capitão Salgueiro Maia",
        "government": "tax",
        "name": "Finanças SF - Lagos",
        "office": "government",
        "operator": "Autoridade Tributária e Aduaneira - Lagos",
        "source": "local survey"
      },
      "geometry": {
        "type": "Point",
        "coordinates": [
          -8.6759243,
          37.0960533
        ]
      },
      "id": "node/2407687229"
    },
    {
      "type": "Feature",
      "properties": {
        "@id": "node/5203842828",
        "name": "Ikeja Passport Office",
        "office": "government"
      },
      "geometry": {
        "type": "Point",
        "coordinates": [
          3.3560834,
          6.6193774
        ]
      },
      "id": "node/5203842828"
    },
    {
      "type": "Feature",
      "properties": {
        "@id": "node/6371454796",
        "government": "public_service",
        "name": "Ikorodu local Govt",
        "office": "government"
      },
      "geometry": {
        "type": "Point",
        "coordinates": [
          3.4982249,
          6.6089117
        ]
      },
      "id": "node/6371454796"
    },
    {
      "type": "Feature",
      "properties": {
        "@id": "node/6371454798",
        "government": "public_service",
        "name": "vehicle licensing",
        "office": "government"
      },
      "geometry": {
        "type": "Point",
        "coordinates": [
          3.4978708,
          6.6081178
        ]
      },
      "id": "node/6371454798"
    },
    {
      "type": "Feature",
      "properties": {
        "@id": "node/6371454799",
        "government": "register_office",
        "name": "town planners",
        "office": "government"
      },
      "geometry": {
        "type": "Point",
        "coordinates": [
          3.4976563,
          6.6079046
        ]
      },
      "id": "node/6371454799"
    },
    {
      "type": "Feature",
      "properties": {
        "@id": "node/7367783186",
        "name": "The Nigeria Police - Anti-Bomb EOD",
        "office": "government"
      },
      "geometry": {
        "type": "Point",
        "coordinates": [
          3.3518842,
          6.5911346
        ]
      },
      "id": "node/7367783186"
    },
    {
      "type": "Feature",
      "properties": {
        "@id": "node/7539396723",
        "check_date": "2026-04-26",
        "government": "social_security",
        "name": "Segurança Social",
        "office": "government",
        "opening_hours": "Mo-Fr 09:00-17:00"
      },
      "geometry": {
        "type": "Point",
        "coordinates": [
          -8.6763889,
          37.1081301
        ]
      },
      "id": "node/7539396723"
    },
    {
      "type": "Feature",
      "properties": {
        "@id": "node/9400270517",
        "name": "WAEC office, Yaba",
        "office": "government",
        "survey:date": "2022-01-07"
      },
      "geometry": {
        "type": "Point",
        "coordinates": [
          3.3717755,
          6.5197988
        ]
      },
      "id": "node/9400270517"
    },
    {
      "type": "Feature",
      "properties": {
        "@id": "node/10131861129",
        "addr:city": "Lagos",
        "addr:street": "Awolowo Road",
        "email": "info@efcc.gov.ng",
        "government": "administrative",
        "name": "Economic and financial crimes commission",
        "office": "government",
        "phone": "+234 (9) 904 4751",
        "website": "https://www.efcc.gov.ng/"
      },
      "geometry": {
        "type": "Point",
        "coordinates": [
          3.4111883,
          6.4431759
        ]
      },
      "id": "node/10131861129"
    },
    {
      "type": "Feature",
      "properties": {
        "@id": "node/12299738960",
        "addr:city": "Lagos",
        "addr:postcode": "101233",
        "addr:street": "Ikeja GRA",
        "name": "Lagos State Electricity Board",
        "office": "government"
      },
      "geometry": {
        "type": "Point",
        "coordinates": [
          3.3410649,
          6.5843469
        ]
      },
      "id": "node/12299738960"
    },
    {
      "type": "Feature",
      "properties": {
        "@id": "node/13438691225",
        "government": "office",
        "name": "Lekki Free Trade Zone Complex",
        "office": "government"
      },
      "geometry": {
        "type": "Point",
        "coordinates": [
          3.963519,
          6.4400841
        ]
      },
      "id": "node/13438691225"
    }
  ]
}